     2              NAVIGATION DATA                         RINEX VERSION / TYPE
CCRINEXN V1.6.0 UX  CDDIS               31-JUL-16 15:33     PGM / RUN BY / DATE 
IGS BROADCAST EPHEMERIS FILE                                COMMENT             
    0.4657D-08  0.1490D-07 -0.5960D-07 -0.5960D-07          ION ALPHA           
    0.7782D+05  0.4915D+05 -0.6554D+05 -0.3277D+06          ION BETA            
    0.279396772385D-08 0.266453525910D-14   589824     1907 DELTA-UTC: A0,A1,T,W
    17                                                      LEAP SECONDS        
                                                            END OF HEADER       
19 16  7 30 23 59 44.0-0.524587463587D-03 0.341060513165D-12 0.000000000000D+00
    0.100000000000D+01-0.122687500000D+03 0.414017245480D-08-0.304170704582D+01
   -0.645965337753D-05 0.107135772705D-01 0.588409602642D-05 0.515363378716D+04
    0.604784000000D+06-0.186264514923D-07 0.203492408655D+01-0.189989805222D-06
    0.974054782754D+00 0.274531250000D+03 0.830755995499D+00-0.787782814316D-08
   -0.119647840956D-09 0.100000000000D+01 0.190700000000D+04 0.000000000000D+00
    0.200000000000D+01 0.000000000000D+00-0.149011611938D-07 0.100000000000D+01
    0.597960000000D+06 0.400000000000D+01 0.000000000000D+00 0.000000000000D+00
29 16  7 30 23 59 44.0 0.654603820294D-03-0.682121026330D-12 0.000000000000D+00
    0.200000000000D+01-0.116875000000D+03 0.410588531232D-08 0.219594104270D+01
   -0.618770718575D-05 0.702684512362D-03 0.591389834881D-05 0.515377667808D+04
    0.604784000000D+06-0.186264514923D-08 0.199608532462D+01 0.558793544769D-07
    0.977897742738D+00 0.270281250000D+03 0.530390253797D-01-0.801711965950D-08
   -0.159292349451D-09 0.100000000000D+01 0.190700000000D+04 0.000000000000D+00
    0.200000000000D+01 0.000000000000D+00-0.102445483208D-07 0.200000000000D+01
    0.601710000000D+06 0.400000000000D+01 0.000000000000D+00 0.000000000000D+00
